STARLINK-1676
1 46556U 20070AA  26090.83335647  .00178816  00000+0  24752-2 0  9993
2 46556  53.0440  38.2149 0003529 124.3645 292.2805 15.56000281  5815
